ONEWEB-0116             
1 48046U 21025E   24248.57112509  .00000133  00000+0  32873-3 0  9994
2 48046  87.8860  89.6737 0001472  83.8661 276.2636 13.13471012168243
ONEWEB-0150             
1 48047U 21025F   24248.62191662  .00000339  00000+0  89196-3 0  9996
2 48047  87.8854  89.6779 0001789  82.9016 277.2317 13.13471576168149
ONEWEB-0107             
1 48048U 21025G   24248.62349384  .00000344  00000+0  90561-3 0  9997
2 48048  87.8853  89.6755 0001952  82.5111 277.6240 13.13472138168129
ONEWEB-0101             
1 48049U 21025H   24248.58699350 -.00000264  00000+0 -75817-3 0  9994
2 48049  87.8858  89.7036 0001701  88.0836 272.0488 13.13471399168092
ONEWEB-0113             
1 48050U 21025J   24248.64095173 -.00000023  00000+0 -99087-4 0  9995
2 48050  87.8859  89.6741 0001548  85.1952 274.9354 13.13468969168185
ONEWEB-0112             
1 48051U 21025K   24249.08532706  .00000309  00000+0  81039-3 0  9995
2 48051  87.8853  89.5806 0001642  82.6663 277.4653 13.13470682168261
ONEWEB-0156             
1 48052U 21025L   24248.56160695  .00000326  00000+0  85759-3 0  9994
2 48052  87.8856  89.6857 0001678  83.3609 276.7711 13.13470246168161
ONEWEB-0161             
1 48053U 21025M   24249.06785435 -.00000488  00000+0 -13702-2 0  9995
2 48053  87.8860  89.5936 0001817  88.1864 271.9473 13.13469484168170
